ICEYE-X72               
1 68504U 26067CS  26186.25005787  .00107851  00000+0  98749-2 0  9991
2 68504  97.7629 144.3197 0000296 277.3297   4.2562 14.94385951  5720
ICEYE-X78               
1 68995U 26100R   26186.18585325  .00001407  00000+0  14503-3 0  9993
2 68995  97.7348  83.3064 0003916  74.9949 285.1704 14.91800964  9381
ICEYE-X82               
1 68996U 26100S   26185.66840079  .00004823  00000+0  48833-3 0  9994
2 68996  97.7341  82.7503 0005960  88.9772 271.2129 14.91392450  9301
