{"fetched_at":"2026-07-05T12:48:00.609Z","source":"https://celestrak.org/NORAD/elements/gp.php?NAME=ICEYE&FORMAT=JSON","constellation":"iceye","records":[{"OBJECT_NAME":"ICEYE-X72","OBJECT_ID":"2026-067CS","EPOCH":"2026-07-05T06:00:04.999968","CLASSIFICATION_TYPE":"U","MEAN_MOTION":14.94385951,"ECCENTRICITY":0.00002965,"INCLINATION":97.7629,"RA_OF_ASC_NODE":144.3197,"ARG_OF_PERICENTER":277.3297,"MEAN_ANOMALY":4.2562,"EPHEMERIS_TYPE":0,"NORAD_CAT_ID":68504,"ELEMENT_SET_NO":999,"REV_AT_EPOCH":572,"BSTAR":0.0098748626,"MEAN_MOTION_DOT":0.00107851,"MEAN_MOTION_DDOT":0},{"OBJECT_NAME":"ICEYE-X78","OBJECT_ID":"2026-100R","EPOCH":"2026-07-05T04:27:37.720800","CLASSIFICATION_TYPE":"U","MEAN_MOTION":14.91800964,"ECCENTRICITY":0.00039161,"INCLINATION":97.7348,"RA_OF_ASC_NODE":83.3064,"ARG_OF_PERICENTER":74.9949,"MEAN_ANOMALY":285.1704,"EPHEMERIS_TYPE":0,"NORAD_CAT_ID":68995,"ELEMENT_SET_NO":999,"REV_AT_EPOCH":938,"BSTAR":0.00014503431,"MEAN_MOTION_DOT":0.00001407,"MEAN_MOTION_DDOT":0},{"OBJECT_NAME":"ICEYE-X82","OBJECT_ID":"2026-100S","EPOCH":"2026-07-04T16:02:29.828256","CLASSIFICATION_TYPE":"U","MEAN_MOTION":14.9139245,"ECCENTRICITY":0.00059607,"INCLINATION":97.7341,"RA_OF_ASC_NODE":82.7503,"ARG_OF_PERICENTER":88.9772,"MEAN_ANOMALY":271.2129,"EPHEMERIS_TYPE":0,"NORAD_CAT_ID":68996,"ELEMENT_SET_NO":999,"REV_AT_EPOCH":930,"BSTAR":0.00048833356,"MEAN_MOTION_DOT":0.00004823,"MEAN_MOTION_DDOT":0}]}
